MEAN_MOTION;ECCENTRICITY;INCLINATION;RA_OF_ASC_NODE;ARG_OF_PERICENTER;MEAN_ANOMALY;BSTAR;MEAN_MOTION_DOT;MEAN_MOTION_DDOT;TYPE
0.95184956;0.029527;2.4593;85.5111;234.9828;238.8967;0;-1.28E-6;0;Intelsat
0.95184615;0.0295257;2.4611;85.5069;235.0163;124.3419;0;-1.11E-6;0;Intelsat
0.95184513;0.0295236;2.4621;85.5067;235.0306;246.5073;0;-1.06E-6;0;Intelsat
0.95184424;0.0295179;2.4647;85.5024;235.0776;230.4498;0;-1.08E-6;0;Intelsat
0.9518461;0.0295131;2.4665;85.498;235.1113;115.0715;0;-1.23E-6;0;Intelsat
0.95184626;0.0295107;2.4671;85.4973;235.1223;188.3597;0;-1.3E-6;0;Intelsat
0.95185022;0.0295043;2.4691;85.4938;235.1581;98.2211;0;-1.57E-6;0;Intelsat
0.95185028;0.0295036;2.4692;85.493;235.1609;116.0163;0;-1.59E-6;0;Intelsat
0.95185515;0.0294905;2.4727;85.4875;235.2186;195.4658;0;-2.02E-6;0;Intelsat
0.95185612;0.0294886;2.4732;85.4865;235.2312;274.46;0;-2.09E-6;0;Intelsat
0.95185798;0.0294791;2.4751;85.4825;235.262;162.2832;0;-2.22E-6;0;Intelsat
0.95185892;0.0294664;2.4776;85.4778;235.3061;148.1161;0;-2.24E-6;0;Intelsat
0.95185828;0.0294531;2.48;85.4727;235.3473;128.5987;0;-2.11E-6;0;Intelsat
0.95185718;0.0294402;2.4822;85.4675;235.384;83.8952;0;-1.91E-6;0;Intelsat
0.95185574;0.0294358;2.4837;85.4625;235.4053;307.4428;0;-1.76E-6;0;Intelsat
0.95185597;0.029427;2.4848;85.4596;235.4205;94.9161;0;-1.67E-6;0;Intelsat
0.95185622;0.0294161;2.4871;85.4518;235.4513;77.9713;0;-1.53E-6;0;Intelsat
0.95185666;0.0294139;2.4885;85.4466;235.4673;298.0361;0;-1.51E-6;0;Intelsat
0.95185706;0.0294122;2.4888;85.4454;235.4714;335.4441;0;-1.51E-6;0;Intelsat
0.95185975;0.0294055;2.4908;85.4389;235.4922;281.2765;0;-1.59E-6;0;Intelsat
0.95186076;0.029403;2.4913;85.4367;235.4991;355.0036;0;-1.62E-6;0;Intelsat
0.95186423;0.0293982;2.493;85.4313;235.5155;267.2138;0;-1.8E-6;0;Intelsat
0.95186443;0.0293979;2.4932;85.4308;235.5174;288.894;0;-1.82E-6;0;Intelsat
0.95186554;0.0293957;2.4936;85.4286;235.5238;2.6637;0;-1.87E-6;0;Intelsat
0.95186968;0.0293905;2.4958;85.4211;235.5454;345.7201;0;-2.13E-6;0;Intelsat
0.95187216;0.0293862;2.498;85.4134;235.5656;328.8028;0;-2.29E-6;0;Intelsat
0.95187226;0.0293858;2.4981;85.4125;235.5676;353.3977;0;-2.29E-6;0;Intelsat
0.95187165;0.0293822;2.5003;85.4047;235.5876;336.4732;0;-2.24E-6;0;Intelsat
0.95186966;0.029379;2.5018;85.3988;235.6025;221.5156;0;-2.06E-6;0;Intelsat
0.95186803;0.0293795;2.5025;85.3961;235.6081;331.0554;0;-1.96E-6;0;Intelsat
0.95186314;0.0293772;2.5046;85.3885;235.6271;302.6572;0;-1.55E-6;0;Intelsat
0.95185908;0.0293757;2.5065;85.3816;235.646;236.7651;0;-1.2E-6;0;Intelsat
0.95185828;0.029376;2.5069;85.3802;235.6484;299.0421;0;-1.13E-6;0;Intelsat
0.95185641;0.0293765;2.5083;85.3753;235.665;146.66;0;-9.6E-7;0;Intelsat
0.95185576;0.0293751;2.5091;85.3729;235.6698;273.1709;0;-9.0E-7;0;Intelsat
0.95185549;0.029377;2.5104;85.3687;235.6852;105.3739;0;-8.6E-7;0;Intelsat
0.95185606;0.0293753;2.5115;85.3654;235.6929;265.9413;0;-8.9E-7;0;Intelsat
0.95185807;0.029376;2.5136;85.3589;235.7176;210.7063;0;-1.07E-6;0;Intelsat
0.95186104;0.0293764;2.5161;85.3521;235.7462;218.3383;0;-1.39E-6;0;Intelsat
0.95186251;0.0293768;2.5186;85.3461;235.777;201.5134;0;-1.65E-6;0;Intelsat
0.9518619;0.0293769;2.5207;85.3412;235.8061;135.8441;0;-1.76E-6;0;Intelsat
0.95186136;0.0293758;2.5216;85.3409;235.8138;258.0269;0;-1.78E-6;0;Intelsat
0.95185888;0.0293746;2.5234;85.3366;235.8443;143.4526;0;-1.75E-6;0;Intelsat
0.95185424;0.0293702;2.5262;85.3331;235.8855;151.0377;0;-1.59E-6;0;Intelsat
0.95185326;0.0293686;2.5268;85.3341;235.8921;224.2984;0;-1.55E-6;0;Intelsat
0.95185053;0.0293653;2.5285;85.331;235.9202;109.7615;0;-1.41E-6;0;Intelsat
0.9518475;0.0293576;2.5311;85.3284;235.9608;92.8902;0;-1.25E-6;0;Intelsat
0.95184616;0.0293537;2.5319;85.327;235.9753;190.6077;0;-1.22E-6;0;Intelsat
0.95184636;0.0293468;2.5339;85.3246;236.0065;100.4961;0;-1.19E-6;0;Intelsat
0.95184713;0.0293394;2.5358;85.3213;236.0395;346.2278;0;-1.25E-6;0;Intelsat
0.95185031;0.0293274;2.5384;85.3175;236.081;329.943;0;-1.46E-6;0;Intelsat
0.95185616;0.0293121;2.5413;85.3138;236.1258;0.5843;0;-1.83E-6;0;Intelsat
0.95186149;0.0292971;2.544;85.3096;236.165;8.2392;0;-2.19E-6;0;Intelsat
0.95186448;0.0292838;2.5464;85.3045;236.1982;351.2662;0;-2.38E-6;0;Intelsat
0.95186471;0.029271;2.5487;85.2991;236.2273;334.3388;0;-2.36E-6;0;Intelsat
0.95186483;0.0292692;2.5489;85.2988;236.2302;358.9387;0;-2.35E-6;0;Intelsat
0.95186249;0.0292588;2.5511;85.2933;236.253;317.4051;0;-2.12E-6;0;Intelsat
0.95186048;0.0292492;2.5528;85.2887;236.2683;202.5471;0;-1.87E-6;0;Intelsat
0.95185918;0.0292465;2.5536;85.2862;236.2784;327.114;0;-1.74E-6;0;Intelsat
0.95185908;0.0292438;2.554;85.2853;236.2821;14.2473;0;-1.69E-6;0;Intelsat
0.95185792;0.0292382;2.5551;85.2818;236.2908;185.741;0;-1.52E-6;0;Intelsat
0.95185706;0.0292368;2.5559;85.2798;236.2988;313.1867;0;-1.42E-6;0;Intelsat
0.95185737;0.0292291;2.5572;85.2759;236.309;144.5083;0;-1.32E-6;0;Intelsat
0.95185747;0.0292287;2.5582;85.2739;236.3162;291.2548;0;-1.29E-6;0;Intelsat
0.95185799;0.0292264;2.5587;85.2719;236.3212;5.0172;0;-1.29E-6;0;Intelsat
0.95186029;0.0292215;2.5603;85.2681;236.3314;249.8683;0;-1.35E-6;0;Intelsat
0.95186466;0.0292148;2.5625;85.2616;236.3477;233.0196;0;-1.56E-6;0;Intelsat
0.95186572;0.0292149;2.5631;85.2594;236.3526;332.0909;0;-1.63E-6;0;Intelsat
0.95186878;0.0292098;2.5647;85.255;236.3626;216.2125;0;-1.8E-6;0;Intelsat
0.95187104;0.029206;2.5669;85.2485;236.3771;199.4122;0;-1.94E-6;0;Intelsat
0.95187091;0.0292066;2.5678;85.2457;236.3827;343.3394;0;-1.95E-6;0;Intelsat
0.95187067;0.0292036;2.569;85.242;236.3914;181.0481;0;-1.91E-6;0;Intelsat
0.95186763;0.0292011;2.5714;85.2353;236.4076;190.1968;0;-1.69E-6;0;Intelsat
0.95186568;0.0292015;2.5724;85.2325;236.4123;337.2421;0;-1.57E-6;0;Intelsat
0.95186535;0.0292018;2.5726;85.2321;236.4137;1.8436;0;-1.55E-6;0;Intelsat
0.95186339;0.0292;2.5738;85.229;236.4239;179.9555;0;-1.39E-6;0;Intelsat
0.95186045;0.0292004;2.5752;85.2259;236.432;34.128;0;-1.19E-6;0;Intelsat
0.95185949;0.0292;2.5758;85.2241;236.4396;132.1514;0;-1.11E-6;0;Intelsat
0.95185736;0.0291985;2.5772;85.2205;236.4461;327.9749;0;-9.6E-7;0;Intelsat
0.95185689;0.0291991;2.5776;85.2201;236.4494;17.1764;0;-9.3E-7;0;Intelsat
0.95185632;0.0291996;2.578;85.2198;236.4554;92.7298;0;-8.9E-7;0;Intelsat
0.95185466;0.029199;2.5806;85.2145;236.4774;98.4793;0;-7.9E-7;0;Intelsat
0.95185478;0.0291972;2.5821;85.2112;236.4872;307.6348;0;-8.3E-7;0;Intelsat
0.95185498;0.0291979;2.5826;85.2106;236.4913;7.9144;0;-8.5E-7;0;Intelsat
0.95185713;0.0291969;2.5854;85.2076;236.5199;40.1205;0;-1.12E-6;0;Intelsat
0.9518588;0.0291949;2.5872;85.2052;236.5409;284.8597;0;-1.36E-6;0;Intelsat
0.95186109;0.0291925;2.5902;85.2016;236.5768;326.7286;0;-1.75E-6;0;Intelsat
0.95186084;0.0291875;2.5923;85.2021;236.6061;251.0906;0;-1.91E-6;0;Intelsat
0.95186074;0.0291875;2.5932;85.2004;236.6158;13.9154;0;-1.95E-6;0;Intelsat
0.95185821;0.0291808;2.595;85.2003;236.6437;258.7152;0;-1.92E-6;0;Intelsat
0.9518575;0.0291798;2.5958;85.1985;236.6533;356.9615;0;-1.88E-6;0;Intelsat
0.95185391;0.0291722;2.5974;85.1986;236.6776;217.371;0;-1.73E-6;0;Intelsat
0.95185293;0.0291708;2.598;85.1969;236.6888;315.407;0;-1.64E-6;0;Intelsat
0.95185246;0.0291697;2.5985;85.197;236.6929;4.6211;0;-1.6E-6;0;Intelsat
0.95184821;0.02916;2.6007;85.1948;236.7278;323.0319;0;-1.32E-6;0;Intelsat
0.95184607;0.029148;2.6034;85.1924;236.7649;325.2089;0;-1.11E-6;0;Intelsat
0.95184636;0.0291456;2.6038;85.1929;236.7697;19.8833;0;-1.1E-6;0;Intelsat
0.95184674;0.0291375;2.6055;85.1915;236.7897;264.6666;0;-1.11E-6;0;Intelsat
0.95185082;0.0291255;2.608;85.1884;236.8195;247.7827;0;-1.32E-6;0;Intelsat
0.95185291;0.0291212;2.6087;85.186;236.8346;345.9888;0;-1.41E-6;0;Intelsat
0.95185663;0.0291139;2.6104;85.1845;236.8473;230.9249;0;-1.65E-6;0;Intelsat
0.95186236;0.0291016;2.6129;85.1799;236.8753;238.5496;0;-1.99E-6;0;Intelsat
0.95186375;0.029098;2.6136;85.1774;236.8879;336.71;0;-2.06E-6;0;Intelsat
0.95186575;0.0290904;2.6151;85.1746;236.8972;197.2902;0;-2.17E-6;0;Intelsat
0.95186677;0.0290837;2.6165;85.1718;236.9134;33.5699;0;-2.19E-6;0;Intelsat
0.95186665;0.0290797;2.6176;85.1688;236.9185;204.8983;0;-2.17E-6;0;Intelsat
0.95186622;0.0290741;2.6189;85.1658;236.9314;41.2346;0;-2.09E-6;0;Intelsat
0.95186573;0.0290711;2.6196;85.1633;236.9347;153.9465;0;-2.02E-6;0;Intelsat
0.95186398;0.0290664;2.6213;85.1598;236.9467;48.918;0;-1.83E-6;0;Intelsat
0.95186321;0.0290637;2.6221;85.157;236.9507;171.2821;0;-1.72E-6;0;Intelsat
0.95186154;0.0290605;2.6237;85.1539;236.96;56.5764;0;-1.52E-6;0;Intelsat
0.95186117;0.0290582;2.6243;85.1516;236.963;154.4809;0;-1.45E-6;0;Intelsat
0.95186009;0.0290568;2.6259;85.1482;236.9714;39.6605;0;-1.29E-6;0;Intelsat
0.95186028;0.0290543;2.6281;85.1427;236.9818;22.7469;0;-1.18E-6;0;Intelsat
0.95186232;0.0290521;2.6303;85.1373;236.9915;9.7162;0;-1.23E-6;0;Intelsat
0.95186563;0.0290514;2.6324;85.1323;237.0006;352.0975;0;-1.4E-6;0;Intelsat
0.95186959;0.0290515;2.6351;85.1267;237.0109;45.7326;0;-1.69E-6;0;Intelsat
0.95187098;0.0290518;2.6372;85.1211;237.0206;15.5173;0;-1.83E-6;0;Intelsat
0.95186939;0.029053;2.6397;85.116;237.0324;36.5132;0;-1.79E-6;0;Intelsat
0.9518675;0.0290516;2.641;85.1137;237.0394;232.2714;0;-1.67E-6;0;Intelsat
0.951862;0.0290534;2.6434;85.1092;237.0545;215.4316;0;-1.33E-6;0;Intelsat
0.95185918;0.0290548;2.6444;85.1066;237.0587;2.6624;0;-1.16E-6;0;Intelsat
0.95185378;0.0290558;2.6468;85.103;237.0756;349.496;0;-8.2E-7;0;Intelsat
0.95185169;0.0290565;2.6482;85.1017;237.0928;181.788;0;-6.9E-7;0;Intelsat
0.95185088;0.0290559;2.649;85.1009;237.0946;304.2037;0;-6.5E-7;0;Intelsat
0.95185062;0.0290551;2.6516;85.0983;237.1201;303.6423;0;-7.2E-7;0;Intelsat
0.95185287;0.0290531;2.6542;85.0966;237.1488;294.9001;0;-1.01E-6;0;Intelsat
0.95185553;0.0290489;2.6566;85.096;237.1776;253.4939;0;-1.35E-6;0;Intelsat
0.95185702;0.0290481;2.6577;85.0951;237.188;40.9413;0;-1.5E-6;0;Intelsat
0.95185759;0.0290425;2.6591;85.0945;237.2091;236.6337;0;-1.67E-6;0;Intelsat
0.95185783;0.0290345;2.6616;85.0929;237.2407;219.7715;0;-1.83E-6;0;Intelsat
